{"type": "FeatureCollection", "features": [ {"type": "Feature", "properties": {"norad_id": 34375, "name": "IRIDIUM 33 DEB", "group": "iridium-33-debris", "lat": 7.307074021550872, "lon": -175.6830065437864, "alt_km": 879.8346938227778, "timestamp": "2025-12-09T20:37:09.674058+00:00", "meta": {"OBJECT_NAME": "IRIDIUM 33 DEB", "OBJECT_ID": "1997-051FT", "EPOCH": "2025-12-09T12:12:31.902912", "MEAN_MOTION": 14.17984003, "ECCENTRICITY": 0.01030688, "INCLINATION": 86.4325, "RA_OF_ASC_NODE": 183.9999, "ARG_OF_PERICENTER": 136.8871, "MEAN_ANOMALY": 243.7031, "EPHEMERIS_TYPE": 0, "CLASSIFICATION_TYPE": "U", "NORAD_CAT_ID": 34375, "ELEMENT_SET_NO": 999, "REV_AT_EPOCH": 86666, "BSTAR": 0.00067002905, "MEAN_MOTION_DOT": 1.464e-05, "MEAN_MOTION_DDOT": 0}, "tle": {"line1": "1 34375U 97051FT  25343.50870258  .00001464  00000+0  67003-3 0  9999", "line2": "2 34375  86.4325 183.9999 0103068 136.8871 243.7031 14.17984003866661"}}, "geometry": {"type": "Point", "coordinates": [-175.6830065437864, 7.307074021550872]}}, {"type": "Feature", "properties": {"norad_id": 34376, "name": "IRIDIUM 33 DEB", "group": "iridium-33-debris", "lat": -79.62329722651832, "lon": -12.86939196028358, "alt_km": 696.8596682194302, "timestamp": "2025-12-09T20:37:09.674068+00:00", "meta": {"OBJECT_NAME": "IRIDIUM 33 DEB", "OBJECT_ID": "1997-051FU", "EPOCH": "2025-12-09T01:16:56.150688", "MEAN_MOTION": 14.62483707, "ECCENTRICITY": 0.00267298, "INCLINATION": 86.2984, "RA_OF_ASC_NODE": 8.1966, "ARG_OF_PERICENTER": 179.1594, "MEAN_ANOMALY": 180.9667, "EPHEMERIS_TYPE": 0, "CLASSIFICATION_TYPE": "U", "NORAD_CAT_ID": 34376, "ELEMENT_SET_NO": 999, "REV_AT_EPOCH": 87953, "BSTAR": 0.0016761111, "MEAN_MOTION_DOT": 8.56e-05, "MEAN_MOTION_DDOT": 0}, "tle": {"line1": "1 34376U 97051FU  25343.05342767  .00008560  00000+0  16761-2 0  9997", "line2": "2 34376  86.2984   8.1966 0026729 179.1594 180.9667 14.62483707879535"}}, "geometry": {"type": "Point", "coordinates": [-12.86939196028358, -79.62329722651832]}}, {"type": "Feature", "properties": {"norad_id": 34486, "name": "IRIDIUM 33 DEB", "group": "iridium-33-debris", "lat": 27.107066931461432, "lon": -168.49547099407647, "alt_km": 571.6968699675508, "timestamp": "2025-12-09T20:37:09.674079+00:00", "meta": {"OBJECT_NAME": "IRIDIUM 33 DEB", "OBJECT_ID": "1997-051GB", "EPOCH": "2025-12-09T02:32:24.432576", "MEAN_MOTION": 14.95535062, "ECCENTRICITY": 0.00133768, "INCLINATION": 86.394, "RA_OF_ASC_NODE": 13.7018, "ARG_OF_PERICENTER": 124.1656, "MEAN_ANOMALY": 295.4203, "EPHEMERIS_TYPE": 0, "CLASSIFICATION_TYPE": "U", "NORAD_CAT_ID": 34486, "ELEMENT_SET_NO": 999, "REV_AT_EPOCH": 88932, "BSTAR": 0.0024815535, "MEAN_MOTION_DOT": 0.00027645, "MEAN_MOTION_DDOT": 0}, "tle": {"line1": "1 34486U 97051GB  25343.10583834  .00027645  00000+0  24816-2 0  9992", "line2": "2 34486  86.3940  13.7018 0013376 124.1656 295.4203 14.95535062889327"}}, "geometry": {"type": "Point", "coordinates": [-168.49547099407647, 27.107066931461432]}}, {"type": "Feature", "properties": {"norad_id": 34487, "name": "IRIDIUM 33 DEB", "group": "iridium-33-debris", "lat": -8.861965388328166, "lon": 13.046315963556077, "alt_km": 771.2732171650568, "timestamp": "2025-12-09T20:37:09.674089+00:00", "meta": {"OBJECT_NAME": "IRIDIUM 33 DEB", "OBJECT_ID": "1997-051GC", "EPOCH": "2025-12-09T13:02:34.225152", "MEAN_MOTION": 14.43210481, "ECCENTRICITY": 0.00325119, "INCLINATION": 86.3437, "RA_OF_ASC_NODE": 13.7534, "ARG_OF_PERICENTER": 138.4388, "MEAN_ANOMALY": 13.878, "EPHEMERIS_TYPE": 0, "CLASSIFICATION_TYPE": "U", "NORAD_CAT_ID": 34487, "ELEMENT_SET_NO": 999, "REV_AT_EPOCH": 88202, "BSTAR": 0.00032204324, "MEAN_MOTION_DOT": 1.109e-05, "MEAN_MOTION_DDOT": 0}, "tle": {"line1": "1 34487U 97051GC  25343.54345168  .00001109  00000+0  32204-3 0  9995", "line2": "2 34487  86.3437  13.7534 0032511 138.4388  13.8780 14.43210481882024"}}, "geometry": {"type": "Point", "coordinates": [13.046315963556077, -8.861965388328166]}}, {"type": "Feature", "properties": {"norad_id": 34488, "name": "IRIDIUM 33 DEB", "group": "iridium-33-debris", "lat": 27.118785321443674, "lon": 125.35202899005952, "alt_km": 481.1802583766548, "timestamp": "2025-12-09T20:37:09.674099+00:00", "meta": {"OBJECT_NAME": "IRIDIUM 33 DEB", "OBJECT_ID": "1997-051GD", "EPOCH": "2025-12-09T15:14:24.291168", "MEAN_MOTION": 15.28228201, "ECCENTRICITY": 0.00141129, "INCLINATION": 86.3246, "RA_OF_ASC_NODE": 307.3494, "ARG_OF_PERICENTER": 56.5071, "MEAN_ANOMALY": 303.7523, "EPHEMERIS_TYPE": 0, "CLASSIFICATION_TYPE": "U", "NORAD_CAT_ID": 34488, "ELEMENT_SET_NO": 999, "REV_AT_EPOCH": 89192, "BSTAR": 0.005927931, "MEAN_MOTION_DOT": 0.00166796, "MEAN_MOTION_DDOT": 0}, "tle": {"line1": "1 34488U 97051GD  25343.63500337  .00166796  00000+0  59279-2 0  9991", "line2": "2 34488  86.3246 307.3494 0014112  56.5071 303.7523 15.28228201891924"}}, "geometry": {"type": "Point", "coordinates": [125.35202899005952, 27.118785321443674]}}, {"type": "Feature", "properties": {"norad_id": 34492, "name": "IRIDIUM 33 DEB", "group": "iridium-33-debris", "lat": -82.60661114867071, "lon": -175.83467270712217, "alt_km": 682.8448053587708, "timestamp": "2025-12-09T20:37:09.674110+00:00", "meta": {"OBJECT_NAME": "IRIDIUM 33 DEB", "OBJECT_ID": "1997-051GH", "EPOCH": "2025-12-09T11:35:07.823616", "MEAN_MOTION": 14.25591238, "ECCENTRICITY": 0.01894647, "INCLINATION": 86.4738, "RA_OF_ASC_NODE": 335.9453, "ARG_OF_PERICENTER": 248.7156, "MEAN_ANOMALY": 243.5947, "EPHEMERIS_TYPE": 0, "CLASSIFICATION_TYPE": "U", "NORAD_CAT_ID": 34492, "ELEMENT_SET_NO": 999, "REV_AT_EPOCH": 85012, "BSTAR": 0.0075389978, "MEAN_MOTION_DOT": 0.00021601, "MEAN_MOTION_DDOT": 0}, "tle": {"line1": "1 34492U 97051GH  25343.48272944  .00021601  00000+0  75390-2 0  9996", "line2": "2 34492  86.4738 335.9453 0189464 248.7156 243.5947 14.25591238850127"}}, "geometry": {"type": "Point", "coordinates": [-175.83467270712217, -82.60661114867071]}}, {"type": "Feature", "properties": {"norad_id": 34497, "name": "IRIDIUM 33 DEB", "group": "iridium-33-debris", "lat": 56.28251565176722, "lon": -131.96502278064736, "alt_km": 834.5877497163856, "timestamp": "2025-12-09T20:37:09.674120+00:00", "meta": {"OBJECT_NAME": "IRIDIUM 33 DEB", "OBJECT_ID": "1997-051GN", "EPOCH": "2025-12-09T05:09:24.196032", "MEAN_MOTION": 14.27438084, "ECCENTRICITY": 0.0079165, "INCLINATION": 86.2781, "RA_OF_ASC_NODE": 53.9075, "ARG_OF_PERICENTER": 351.0726, "MEAN_ANOMALY": 63.0332, "EPHEMERIS_TYPE": 0, "CLASSIFICATION_TYPE": "U", "NORAD_CAT_ID": 34497, "ELEMENT_SET_NO": 999, "REV_AT_EPOCH": 86833, "BSTAR": 0.0009704, "MEAN_MOTION_DOT": 2.479e-05, "MEAN_MOTION_DDOT": 0}, "tle": {"line1": "1 34497U 97051GN  25343.21486338  .00002479  00000+0  97040-3 0  9995", "line2": "2 34497  86.2781  53.9075 0079165 351.0726  63.0332 14.27438084868338"}}, "geometry": {"type": "Point", "coordinates": [-131.96502278064736, 56.28251565176722]}}, {"type": "Feature", "properties": {"norad_id": 34508, "name": "IRIDIUM 33 DEB", "group": "iridium-33-debris", "lat": 12.675617956910008, "lon": -76.95368397404654, "alt_km": 719.6071680437508, "timestamp": "2025-12-09T20:37:09.674130+00:00", "meta": {"OBJECT_NAME": "IRIDIUM 33 DEB", "OBJECT_ID": "1997-051GZ", "EPOCH": "2025-12-09T08:09:22.353120", "MEAN_MOTION": 14.38378471, "ECCENTRICITY": 0.00659121, "INCLINATION": 86.3702, "RA_OF_ASC_NODE": 104.0845, "ARG_OF_PERICENTER": 183.8965, "MEAN_ANOMALY": 176.1729, "EPHEMERIS_TYPE": 0, "CLASSIFICATION_TYPE": "U", "NORAD_CAT_ID": 34508, "ELEMENT_SET_NO": 999, "REV_AT_EPOCH": 87260, "BSTAR": 0.0023049573, "MEAN_MOTION_DOT": 7.224e-05, "MEAN_MOTION_DDOT": 0}, "tle": {"line1": "1 34508U 97051GZ  25343.33984205  .00007224  00000+0  23050-2 0  9999", "line2": "2 34508  86.3702 104.0845 0065912 183.8965 176.1729 14.38378471872605"}}, "geometry": {"type": "Point", "coordinates": [-76.95368397404654, 12.675617956910008]}}, {"type": "Feature", "properties": {"norad_id": 34521, "name": "IRIDIUM 33 DEB", "group": "iridium-33-debris", "lat": 85.22611824376196, "lon": 81.110244368896, "alt_km": 675.7475237440149, "timestamp": "2025-12-09T20:37:09.674141+00:00", "meta": {"OBJECT_NAME": "IRIDIUM 33 DEB", "OBJECT_ID": "1997-051HN", "EPOCH": "2025-12-09T10:22:36.054336", "MEAN_MOTION": 14.63320774, "ECCENTRICITY": 0.00012328, "INCLINATION": 86.3799, "RA_OF_ASC_NODE": 32.0038, "ARG_OF_PERICENTER": 237.8673, "MEAN_ANOMALY": 122.2419, "EPHEMERIS_TYPE": 0, "CLASSIFICATION_TYPE": "U", "NORAD_CAT_ID": 34521, "ELEMENT_SET_NO": 999, "REV_AT_EPOCH": 88424, "BSTAR": 0.0013249324, "MEAN_MOTION_DOT": 6.86e-05, "MEAN_MOTION_DDOT": 0}, "tle": {"line1": "1 34521U 97051HN  25343.43236174  .00006860  00000+0  13249-2 0  9994", "line2": "2 34521  86.3799  32.0038 0001232 237.8673 122.2419 14.63320774884243"}}, "geometry": {"type": "Point", "coordinates": [81.110244368896, 85.22611824376196]}}, {"type": "Feature", "properties": {"norad_id": 34525, "name": "IRIDIUM 33 DEB", "group": "iridium-33-debris", "lat": 62.0580111217093, "lon": -138.79534235810175, "alt_km": 738.4000234834557, "timestamp": "2025-12-09T20:37:09.674168+00:00", "meta": {"OBJECT_NAME": "IRIDIUM 33 DEB", "OBJECT_ID": "1997-051HS", "EPOCH": "2025-12-09T15:47:29.903136", "MEAN_MOTION": 14.42894832, "ECCENTRICITY": 0.00066996, "INCLINATION": 86.3728, "RA_OF_ASC_NODE": 48.159, "ARG_OF_PERICENTER": 102.4464, "MEAN_ANOMALY": 50.9886, "EPHEMERIS_TYPE": 0, "CLASSIFICATION_TYPE": "U", "NORAD_CAT_ID": 34525, "ELEMENT_SET_NO": 999, "REV_AT_EPOCH": 88043, "BSTAR": 0.00063201459, "MEAN_MOTION_DOT": 2.13e-05, "MEAN_MOTION_DDOT": 0}, "tle": {"line1": "1 34525U 97051HS  25343.65798499  .00002130  00000+0  63201-3 0  9995", "line2": "2 34525  86.3728  48.1590 0006699 102.4464  50.9886 14.42894832880437"}}, "geometry": {"type": "Point", "coordinates": [-138.79534235810175, 62.0580111217093]}}]}